[{"OBJECT_NAME":"STARLINK-2558","OBJECT_ID":"2021-036G","EPOCH":"2026-03-09T05:46:50.420640","MEAN_MOTION":15.30182377,"ECCENTRICITY":0.00011617,"INCLINATION":53.1601,"RA_OF_ASC_NODE":77.4576,"ARG_OF_PERICENTER":117.5485,"MEAN_ANOMALY":242.5634,"EPHEMERIS_TYPE":0,"CLASSIFICATION_TYPE":"U","NORAD_CAT_ID":48282,"ELEMENT_SET_NO":999,"REV_AT_EPOCH":26834,"BSTAR":-4.0136683e-5,"MEAN_MOTION_DOT":-1.547e-5,"MEAN_MOTION_DDOT":0},{"OBJECT_NAME":"TIANMU-1 21","OBJECT_ID":"2023-208C","EPOCH":"2026-03-09T21:48:13.065120","MEAN_MOTION":15.33041299,"ECCENTRICITY":0.00059807,"INCLINATION":97.4378,"RA_OF_ASC_NODE":187.7048,"ARG_OF_PERICENTER":317.2488,"MEAN_ANOMALY":42.8288,"EPHEMERIS_TYPE":0,"CLASSIFICATION_TYPE":"U","NORAD_CAT_ID":58662,"ELEMENT_SET_NO":999,"REV_AT_EPOCH":12234,"BSTAR":0.00040063782,"MEAN_MOTION_DOT":0.00012722,"MEAN_MOTION_DDOT":0}]
